NORAD_CAT_ID,OBJECT_NAME,OBJECT_TYPE,EPOCH,MEAN_MOTION,ECCENTRICITY,INCLINATION,RA_OF_ASC_NODE,ARG_OF_PERICENTER,MEAN_ANOMALY,BSTAR,MEAN_MOTION_DOT,MEAN_MOTION_DDOT,TLE_LINE0,TLE_LINE1,TLE_LINE2,SEMIMAJOR_AXIS,PERIOD,APOGEE,PERIGEE,DECAYED
56775.0,STARLINK-6292,PAYLOAD,2023-09-28 20:32:59,15.69920654,0.0003491,69.9994,74.2791,278.7989,81.2811,6.9861e-06,6.27e-06,0.0,0 STARLINK-6292,1 56775U 23078J   23271.85623953  .00000627  00000-0  69861-5 0  9996,2 56775  69.9994  74.2791 0003491 278.7989  81.2811 15.69920654 18978,6737.261,91.724,361.478,356.774,0.0
56775.0,STARLINK-6292,PAYLOAD,2023-09-29 13:22:15,15.69928616,0.0003676,69.9971,72.3123,277.8322,82.2456,2.1421e-05,2.364e-05,0.0,0 STARLINK-6292,1 56775U 23078J   23272.55711828  .00002364  00000-0  21421-4 0  9992,2 56775  69.9971  72.3123 0003676 277.8322  82.2456 15.69928616 19082,6737.238,91.724,361.58,356.627,0.0
56775.0,STARLINK-6292,PAYLOAD,2023-09-29 14:53:59,15.69931008,0.0003616,69.9976,72.1328,277.5343,82.5442,2.6289e-05,2.95e-05,0.0,0 STARLINK-6292,1 56775U 23078J   23272.62083253  .00002950  00000-0  26289-4 0  9992,2 56775  69.9976  72.1328 0003616 277.5343  82.5442 15.69931008 19353,6737.231,91.724,361.533,356.66,0.0
56775.0,STARLINK-6292,PAYLOAD,2023-09-29 19:29:13,15.69949562,0.0003738,69.9985,71.5934,267.9779,92.0988,3.548e-05,4.06e-05,0.0,0 STARLINK-6292,1 56775U 23078J   23272.81196613  .00004060  00000-0  35480-4 0  9995,2 56775  69.9985  71.5934 0003738 267.9779  92.0988 15.69949562 19388,6737.178,91.723,361.562,356.525,0.0
56775.0,STARLINK-6292,PAYLOAD,2023-09-30 10:46:45,15.69945814,0.0002979,69.9972,69.8016,299.3759,60.7139,3.5391e-05,4.048e-05,0.0,0 STARLINK-6292,1 56775U 23078J   23273.44913386  .00004048  00000-0  35391-4 0  9996,2 56775  69.9972  69.8016 0002979 299.3759  60.7139 15.69945814 19485,6737.189,91.723,361.061,357.047,0.0
56775.0,STARLINK-6292,PAYLOAD,2023-09-30 18:25:33,15.69908865,0.0003621,69.9987,68.9078,270.2632,89.8149,-1.0612e-05,-1.488e-05,0.0,0 STARLINK-6292,1 56775U 23078J   23273.76774490 -.00001488  00000-0 -10612-4 0  9998,2 56775  69.9987  68.9078 0003621 270.2632  89.8149 15.69908865 19536,6737.295,91.725,361.599,356.72,0.0
56775.0,STARLINK-6292,PAYLOAD,2023-10-01 11:14:48,15.69921413,0.0003601,70.0005,66.9369,269.456,90.6223,-2.2929e-05,-2.969e-05,0.0,0 STARLINK-6292,1 56775U 23078J   23274.46861865 -.00002969  00000-0 -22929-4 0  9998,2 56775  70.0005  66.9369 0003601 269.4560  90.6223 15.69921413 19648,6737.259,91.724,361.55,356.698,0.0
56775.0,STARLINK-6292,PAYLOAD,2023-10-01 12:46:33,15.6992828,0.0003331,69.9978,66.7576,269.649,90.4324,1.0171e-06,-9e-07,0.0,0 STARLINK-6292,1 56775U 23078J   23274.53233640 -.00000090  00000-0  10171-5 0  9999,2 56775  69.9978  66.7576 0003331 269.6490  90.4324 15.69928280 19397,6737.239,91.724,361.348,356.86,0.0
56775.0,STARLINK-6292,PAYLOAD,2023-10-01 20:25:19,15.69923261,0.0003417,69.9985,65.8624,267.2782,92.8023,-1.137e-05,-1.58e-05,0.0,0 STARLINK-6292,1 56775U 23078J   23274.85092435 -.00001580  00000-0 -11370-4 0  9996,2 56775  69.9985  65.8624 0003417 267.2782  92.8023 15.69923261 19444,6737.254,91.724,361.421,356.816,0.0
56775.0,STARLINK-6292,PAYLOAD,2023-10-02 19:21:36,15.69916552,0.0003595,69.9984,63.1745,270.82,89.2584,3.1554e-05,3.582e-05,0.0,0 STARLINK-6292,1 56775U 23078J   23275.80667226  .00003582  00000-0  31554-4 0  9996,2 56775  69.9984  63.1745 0003595 270.8200  89.2584 15.69916552 19852,6737.273,91.725,361.56,356.716,0.0
56775.0,STARLINK-6292,PAYLOAD,2023-10-03 13:42:38,15.69912276,0.0003604,69.9969,61.0249,267.8293,92.249,8.5928e-06,8.2e-06,0.0,0 STARLINK-6292,1 56775U 23078J   23276.57128178  .00000820  00000-0  85928-5 0  9996,2 56775  69.9969  61.0249 0003604 267.8293  92.2490 15.69912276 19714,6737.285,91.725,361.578,356.722,0.0
56775.0,STARLINK-6292,PAYLOAD,2023-10-03 19:49:38,15.69929246,0.0003509,69.9989,60.3075,269.6476,90.4318,1.462e-05,1.546e-05,0.0,0 STARLINK-6292,1 56775U 23078J   23276.82613779  .00001546  00000-0  14620-4 0  9996,2 56775  69.9989  60.3075 0003509 269.6476  90.4318 15.69929246 19750,6737.236,91.724,361.466,356.737,0.0
56775.0,STARLINK-6292,PAYLOAD,2023-10-04 12:38:54,15.69933255,0.0003162,69.9982,58.3377,266.2166,93.8668,1.7679e-05,1.914e-05,0.0,0 STARLINK-6292,1 56775U 23078J   23277.52701739  .00001914  00000-0  17679-4 0  9994,2 56775  69.9982  58.3377 0003162 266.2166  93.8668 15.69933255 19861,6737.225,91.724,361.22,356.96,0.0
56775.0,STARLINK-6292,PAYLOAD,2023-10-04 18:45:55,15.6991817,0.0003422,69.9975,57.6203,272.0814,87.999,-1.392e-07,-2.3e-06,0.0,0 STARLINK-6292,1 56775U 23078J   23277.78189752 -.00000230  00000-0 -13920-6 0  9996,2 56775  69.9975  57.6203 0003422 272.0814  87.9990 15.69918170 20163,6737.268,91.725,361.439,356.828,0.0
56775.0,STARLINK-6292,PAYLOAD,2023-10-05 02:24:41,15.69924496,0.0003563,69.9976,56.7248,271.8689,88.2098,6.6901e-06,5.92e-06,0.0,0 STARLINK-6292,1 56775U 23078J   23278.10047594  .00000592  00000-0  66901-5 0  9995,2 56775  69.9976  56.7248 0003563 271.8689  88.2098 15.69924496 20213,6737.25,91.724,361.515,356.715,0.0
56775.0,STARLINK-6292,PAYLOAD,2023-10-05 11:35:12,15.69921752,0.0003407,69.997,55.6507,270.4536,89.6269,1.4588e-05,1.541e-05,0.0,0 STARLINK-6292,1 56775U 23078J   23278.48277841  .00001541  00000-0  14588-4 0  9994,2 56775  69.9970  55.6507 0003407 270.4536  89.6269 15.69921752 20011,6737.258,91.724,361.418,356.827,0.0
56775.0,STARLINK-6292,PAYLOAD,2023-10-05 19:13:57,15.69927027,0.000348,69.9975,54.7547,273.1893,86.8905,2.2683e-05,2.516e-05,0.0,0 STARLINK-6292,1 56775U 23078J   23278.80135804  .00002516  00000-0  22683-4 0  9990,2 56775  69.9975  54.7547 0003480 273.1893  86.8905 15.69927027 20069,6737.243,91.724,361.452,356.763,0.0
56775.0,STARLINK-6292,PAYLOAD,2023-10-06 10:31:27,15.69942253,0.0003167,69.9986,52.9623,267.4719,92.6114,2.2678e-05,2.517e-05,0.0,0 STARLINK-6292,1 56775U 23078J   23279.43851577  .00002517  00000-0  22678-4 0  9997,2 56775  69.9986  52.9623 0003167 267.4719  92.6114 15.69942253 20426,6737.199,91.723,361.198,356.931,0.0
56775.0,STARLINK-6292,PAYLOAD,2023-10-06 12:03:14,15.69908165,0.0002911,69.9986,52.7833,264.891,95.1953,4.572e-06,3.37e-06,0.0,0 STARLINK-6292,1 56775U 23078J   23279.50225590  .00000337  00000-0  45720-5 0  9997,2 56775  69.9986  52.7833 0002911 264.8910  95.1953 15.69908165 20172,6737.297,91.725,361.123,357.201,0.0
56775.0,STARLINK-6292,PAYLOAD,2023-10-06 16:38:29,15.69925884,0.0003206,69.9978,52.2463,272.5578,87.525,6.9436e-06,6.22e-06,0.0,0 STARLINK-6292,1 56775U 23078J   23279.69339549  .00000622  00000-0  69436-5 0  9994,2 56775  69.9978  52.2463 0003206 272.5578  87.5250 15.69925884 20465,6737.246,91.724,361.271,356.951,0.0
56775.0,STARLINK-6292,PAYLOAD,2023-10-06 21:13:45,15.69917027,0.0003113,69.9981,51.7088,271.5637,88.5202,1.9821e-05,2.17e-05,0.0,0 STARLINK-6292,1 56775U 23078J   23279.88455025  .00002170  00000-0  19821-4 0  9995,2 56775  69.9981  51.7088 0003113 271.5637  88.5202 15.69917027 20231,6737.271,91.725,361.234,357.039,0.0
56775.0,STARLINK-6292,PAYLOAD,2023-10-07 10:59:31,15.69910854,0.0003781,69.9976,50.0972,276.6996,83.377,3.127e-06,1.63e-06,0.0,0 STARLINK-6292,1 56775U 23078J   23280.45800729  .00000163  00000-0  31270-5 0  9998,2 56775  69.9976  50.0972 0003781 276.6996  83.3770 15.69910854 20586,6737.289,91.725,361.701,356.607,0.0
56775.0,STARLINK-6292,PAYLOAD,2023-10-07 12:31:16,15.69914619,0.0003701,69.9993,49.9187,269.363,90.7142,-3.2204e-06,-6e-06,0.0,0 STARLINK-6292,1 56775U 23078J   23280.52171785 -.00000600  00000-0 -32204-5 0  9995,2 56775  69.9993  49.9187 0003701 269.3630  90.7142 15.69914619 20337,6737.278,91.725,361.637,356.65,0.0
56775.0,STARLINK-6292,PAYLOAD,2023-10-07 18:38:16,15.69928192,0.000338,70.0002,49.2006,270.3017,89.7791,1.4686e-05,1.554e-05,0.0,0 STARLINK-6292,1 56775U 23078J   23280.77657948  .00001554  00000-0  14686-4 0  9992,2 56775  70.0002  49.2006 0003380 270.3017  89.7791 15.69928192 20630,6737.239,91.724,361.382,356.827,0.0
56775.0,STARLINK-6292,PAYLOAD,2023-10-08 12:59:17,15.69930921,0.0003358,69.9992,47.051,265.2654,94.8158,1.9872e-05,2.178e-05,0.0,0 STARLINK-6292,1 56775U 23078J   23281.54117808  .00002178  00000-0  19872-4 0  9999,2 56775  69.9992  47.0510 0003358 265.2654  94.8158 15.69930921 20497,6737.232,91.724,361.359,356.834,0.0
56775.0,STARLINK-6292,PAYLOAD,2023-10-08 17:34:32,15.69936057,0.0003233,69.9993,46.5136,263.8012,96.2815,1.2187e-05,1.254e-05,0.0,0 STARLINK-6292,1 56775U 23078J   23281.73232490  .00001254  00000-0  12187-4 0  9991,2 56775  69.9993  46.5136 0003233 263.8012  96.2815 15.69936057 20526,6737.217,91.723,361.26,356.904,0.0
56775.0,STARLINK-6292,PAYLOAD,2023-10-09 08:52:05,15.69918367,0.0002914,70.0001,44.7214,284.7544,75.3329,-3.8705e-06,-6.78e-06,0.0,0 STARLINK-6292,1 56775U 23078J   23282.36950361 -.00000678  00000-0 -38705-5 0  9991,2 56775  70.0001  44.7214 0002914 284.7544  75.3329 15.69918367 20884,6737.268,91.725,361.096,357.169,0.0
56775.0,STARLINK-6292,PAYLOAD,2023-10-09 11:55:35,15.69925672,0.0003014,69.9985,44.3629,282.3359,77.7499,-3.8319e-06,-6.73e-06,0.0,0 STARLINK-6292,1 56775U 23078J   23282.49693667 -.00000673  00000-0 -38319-5 0  9994,2 56775  69.9985  44.3629 0003014 282.3359  77.7499 15.69925672 20643,6737.247,91.724,361.142,357.081,0.0
56775.0,STARLINK-6292,PAYLOAD,2023-10-09 18:02:35,15.69924394,0.0003409,69.9998,43.6478,266.0855,93.9951,2.3707e-05,2.639e-05,0.0,0 STARLINK-6292,1 56775U 23078J   23282.75179961  .00002639  00000-0  23707-4 0  9995,2 56775  69.9998  43.6478 0003409 266.0855  93.9951 15.69924394 20945,6737.25,91.724,361.412,356.819,0.0
56775.0,STARLINK-6292,PAYLOAD,2023-10-10 10:51:51,15.69923689,0.000382,69.9993,41.6758,274.3721,85.7038,4.3375e-06,3.09e-06,0.0,0 STARLINK-6292,1 56775U 23078J   23283.45268346  .00000309  00000-0  43375-5 0  9995,2 56775  69.9993  41.6758 0003820 274.3721  85.7038 15.69923689 20794,6737.252,91.724,361.691,356.544,0.0
